OBJECT_NAME,OBJECT_ID,EPOCH,MEAN_MOTION,ECCENTRICITY,INCLINATION,RA_OF_ASC_NODE,ARG_OF_PERICENTER,MEAN_ANOMALY,EPHEMERIS_TYPE,CLASSIFICATION_TYPE,NORAD_CAT_ID,ELEMENT_SET_NO,REV_AT_EPOCH,BSTAR,MEAN_MOTION_DOT,MEAN_MOTION_DDOT
STARLINK-36933,2026-114Q,2026-06-16T07:16:09.605280,15.80910536,.00007993,53.1573,206.5736,63.6227,296.4878,0,U,69196,999,463,.60761679E-3,.12113E-2,0
STARLINK-37419,2026-114R,2026-06-16T07:13:59.998368,15.80922450,.00011508,53.1570,206.5618,103.9317,256.1834,0,U,69197,999,463,.85573015E-3,.171991E-2,0
STARLINK-37321,2026-114S,2026-06-16T07:12:55.138752,15.80929603,.00012224,53.1574,206.5582,104.9807,255.1351,0,U,69198,999,463,.88468576E-3,.178019E-2,0
STARLINK-37406,2026-114T,2026-06-16T07:11:50.261856,15.80913852,.00011382,53.1569,206.5521,109.2385,250.8761,0,U,69199,999,463,.63708838E-3,.127148E-2,0
STARLINK-37761,2026-114U,2026-06-16T07:10:45.476544,15.80907524,.00010894,53.1569,206.5463,106.7244,253.3899,0,U,69200,999,463,.57497374E-3,.11448E-2,0
STARLINK-37754,2026-114V,2026-06-16T07:09:24.118848,15.80927553,.00015149,53.1568,206.5402,79.6270,280.4924,0,U,69201,999,463,.92000382E-3,.185295E-2,0
STARLINK-37649,2026-114W,2026-06-16T07:08:35.905056,15.80921527,.00012541,53.1569,206.5362,106.7194,253.3966,0,U,69202,999,463,.58037758E-3,.115654E-2,0
STARLINK-37604,2026-114X,2026-06-16T07:07:31.193184,15.80912641,.0001039,53.1570,206.5322,84.4129,275.7012,0,U,69203,999,463,.70905303E-3,.141825E-2,0
STARLINK-37669,2026-114Y,2026-06-16T07:06:26.337888,15.80925182,.00012969,53.1569,206.5266,81.4336,278.6834,0,U,69204,999,463,.79479733E-3,.159481E-2,0
STARLINK-37691,2026-114Z,2026-06-16T07:25:02.207712,15.78096041,.00007255,53.1575,206.6133,84.0652,276.0452,0,U,69205,999,463,.10213475E-2,.1808E-2,0
STARLINK-37671,2026-114AA,2026-06-16T07:14:30.453504,15.78090474,.00010677,53.1581,206.5645,104.4580,255.6560,0,U,69206,999,463,.71709384E-3,.125889E-2,0
STARLINK-37647,2026-114AB,2026-06-16T07:05:21.648480,15.80911300,.00012059,53.1569,206.5215,80.3062,279.8097,0,U,69207,999,463,.73925363E-3,.147993E-2,0
STARLINK-37562,2026-114AC,2026-06-16T05:46:09.875712,15.79006397,.00045877,53.1581,206.8933,12.2054,347.9078,0,U,69208,999,462,.10145536E-1,.2089381E-1,0
STARLINK-37682,2026-114AD,2026-06-16T07:01:02.270496,15.80919410,.00011096,53.1568,206.5009,63.7425,296.3712,0,U,69209,999,463,.7683753E-3,.154016E-2,0
STARLINK-37402,2026-114AE,2026-06-16T06:59:57.499008,15.80938441,.00013194,53.1567,206.4961,72.8504,287.2663,0,U,69210,999,463,.95950989E-3,.193565E-2,0
STARLINK-37613,2026-115A,2026-06-16T07:02:47.954112,15.49222843,.00010206,97.2836,184.3990,88.7173,271.4195,0,U,69211,999,452,.82767954E-3,.45237E-3,0
STARLINK-37713,2026-115B,2026-06-16T06:00:02.000160,15.49195539,.00019178,97.2846,184.4805,94.6960,317.6274,0,U,69212,999,454,-.74776954E-4,-.4156E-4,0
STARLINK-37716,2026-115C,2026-06-16T06:00:02.000160,15.49130138,.00016843,97.2843,184.5364,87.4900,95.3240,0,U,69213,999,454,.18881894E-3,.10171E-3,0
STARLINK-37620,2026-115D,2026-06-16T07:23:20.805216,15.49194969,.00005266,97.2833,184.3794,84.2328,275.8983,0,U,69214,999,452,.57005E-3,.31041E-3,0
STARLINK-37700,2026-115E,2026-06-16T05:12:02.644992,15.49208731,.00013281,97.2830,184.1980,81.9751,278.1651,0,U,69215,999,450,.47335519E-3,.25756E-3,0
STARLINK-37766,2026-115F,2026-06-16T06:00:02.000160,15.55008696,.0001778,97.2845,184.5845,95.1690,193.0370,0,U,69216,999,454,-.42257592E-1,-.2465111E-1,0
STARLINK-37763,2026-115G,2026-06-16T06:00:02.000160,15.49132920,.00015837,97.2840,184.5322,84.5559,86.5774,0,U,69217,999,454,.19909441E-3,.10731E-3,0
STARLINK-37724,2026-115H,2026-06-16T06:00:02.000160,15.57205397,.00012331,97.2846,184.6194,90.2432,277.4190,0,U,69218,999,454,-.39815271E-1,-.2512775E-1,0
STARLINK-37758,2026-115J,2026-06-16T06:00:02.000160,15.57624401,.00012604,97.2843,184.6271,88.9838,298.2577,0,U,69219,999,454,-.38435646E-1,-.2470699E-1,0
STARLINK-37201,2026-115K,2026-06-16T06:00:02.000160,15.57329902,.00012568,97.2845,184.6260,93.1376,288.0976,0,U,69220,999,454,-.39757128E-1,-.2519811E-1,0
STARLINK-37728,2026-115L,2026-06-16T06:00:02.000160,15.55696921,.00011842,97.2841,184.6193,86.8090,280.0681,0,U,69221,999,454,-.41626556E-1,-.2487003E-1,0
STARLINK-37760,2026-115M,2026-06-16T06:00:02.000160,15.58885351,.00011845,97.2841,184.6345,80.5181,322.6622,0,U,69222,999,454,-.37957744E-1,-.2547291E-1,0
STARLINK-37759,2026-115N,2026-06-16T06:00:02.000160,15.49171567,.0001059,97.2845,184.5351,103.1832,76.4455,0,U,69223,999,454,.15138964E-3,.8147E-4,0
STARLINK-37725,2026-115P,2026-06-16T06:00:02.000160,15.49159300,.00012438,97.2841,184.5397,95.6856,96.6053,0,U,69224,999,454,.1681239E-3,.9054E-4,0
STARLINK-37770,2026-115Q,2026-06-16T06:00:02.000160,15.59920284,.00012962,97.2847,184.6444,65.4060,4.1268,0,U,69225,999,454,-.36159267E-1,-.2527763E-1,0
