[
  {
    "name": "STARLINK-36933",
    "noradId": "69196",
    "line1": "1 69196U 26114Q   26167.30288895  .00121130  00000+0  60762-3 0  9991",
    "line2": "2 69196  53.1573 206.5736 0000799  63.6227 296.4878 15.80910536  4632"
  },
  {
    "name": "STARLINK-37419",
    "noradId": "69197",
    "line1": "1 69197U 26114R   26167.30138887  .00171991  00000+0  85573-3 0  9994",
    "line2": "2 69197  53.1570 206.5618 0001150 103.9317 256.1834 15.80922450  4632"
  },
  {
    "name": "STARLINK-37321",
    "noradId": "69198",
    "line1": "1 69198U 26114S   26167.30063818  .00178019  00000+0  88469-3 0  9991",
    "line2": "2 69198  53.1574 206.5582 0001222 104.9807 255.1351 15.80929603  4632"
  },
  {
    "name": "STARLINK-37406",
    "noradId": "69199",
    "line1": "1 69199U 26114T   26167.29988729  .00127148  00000+0  63709-3 0  9994",
    "line2": "2 69199  53.1569 206.5521 0001138 109.2385 250.8761 15.80913852  4631"
  },
  {
    "name": "STARLINK-37761",
    "noradId": "69200",
    "line1": "1 69200U 26114U   26167.29913746  .00114480  00000+0  57497-3 0  9996",
    "line2": "2 69200  53.1569 206.5463 0001089 106.7244 253.3899 15.80907524  4639"
  },
  {
    "name": "STARLINK-37754",
    "noradId": "69201",
    "line1": "1 69201U 26114V   26167.29819582  .00185295  00000+0  92000-3 0  9991",
    "line2": "2 69201  53.1568 206.5402 0001514  79.6270 280.4924 15.80927553  4636"
  },
  {
    "name": "STARLINK-37649",
    "noradId": "69202",
    "line1": "1 69202U 26114W   26167.29763779  .00115654  00000+0  58038-3 0  9993",
    "line2": "2 69202  53.1569 206.5362 0001254 106.7194 253.3966 15.80921527  4631"
  },
  {
    "name": "STARLINK-37604",
    "noradId": "69203",
    "line1": "1 69203U 26114X   26167.29688881  .00141825  00000+0  70905-3 0  9990",
    "line2": "2 69203  53.1570 206.5322 0001039  84.4129 275.7012 15.80912641  4638"
  },
  {
    "name": "STARLINK-37669",
    "noradId": "69204",
    "line1": "1 69204U 26114Y   26167.29613817  .00159481  00000+0  79480-3 0  9992",
    "line2": "2 69204  53.1569 206.5266 0001296  81.4336 278.6834 15.80925182  4634"
  },
  {
    "name": "STARLINK-37691",
    "noradId": "69205",
    "line1": "1 69205U 26114Z   26167.30905333  .00180800  00000+0  10213-2 0  9999",
    "line2": "2 69205  53.1575 206.6133 0000725  84.0652 276.0452 15.78096041  4630"
  },
  {
    "name": "STARLINK-37671",
    "noradId": "69206",
    "line1": "1 69206U 26114AA  26167.30174136  .00125889  00000+0  71709-3 0  9993",
    "line2": "2 69206  53.1581 206.5645 0001067 104.4580 255.6560 15.78090474  4639"
  },
  {
    "name": "STARLINK-37647",
    "noradId": "69207",
    "line1": "1 69207U 26114AB  26167.29538945  .00147993  00000+0  73925-3 0  9996",
    "line2": "2 69207  53.1569 206.5215 0001205  80.3062 279.8097 15.80911300  4636"
  },
  {
    "name": "STARLINK-37562",
    "noradId": "69208",
    "line1": "1 69208U 26114AC  26167.24039208  .02089381  00000+0  10146-1 0  9992",
    "line2": "2 69208  53.1581 206.8933 0004587  12.2054 347.9078 15.79006397  4626"
  },
  {
    "name": "STARLINK-37682",
    "noradId": "69209",
    "line1": "1 69209U 26114AD  26167.29238739  .00154016  00000+0  76838-3 0  9996",
    "line2": "2 69209  53.1568 206.5009 0001109  63.7425 296.3712 15.80919410  4637"
  },
  {
    "name": "STARLINK-37402",
    "noradId": "69210",
    "line1": "1 69210U 26114AE  26167.29163772  .00193565  00000+0  95951-3 0  9991",
    "line2": "2 69210  53.1567 206.4961 0001319  72.8504 287.2663 15.80938441  4635"
  },
  {
    "name": "STARLINK-37613",
    "noradId": "69211",
    "line1": "1 69211U 26115A   26167.29361058  .00045237  00000+0  82768-3 0  9994",
    "line2": "2 69211  97.2836 184.3990 0001020  88.7173 271.4195 15.49222843  4527"
  },
  {
    "name": "STARLINK-37713",
    "noradId": "69212",
    "line1": "1 69212U 26115B   26167.25002315 -.00004156  00000+0 -74777-4 0  9998",
    "line2": "2 69212  97.2846 184.4805 0001917  94.6960 317.6274 15.49195539  4544"
  },
  {
    "name": "STARLINK-37716",
    "noradId": "69213",
    "line1": "1 69213U 26115C   26167.25002315  .00010171  00000+0  18882-3 0  9995",
    "line2": "2 69213  97.2843 184.5364 0001684  87.4900  95.3240 15.49130138  4545"
  },
  {
    "name": "STARLINK-37620",
    "noradId": "69214",
    "line1": "1 69214U 26115D   26167.30787969  .00031041  00000+0  57005-3 0  9996",
    "line2": "2 69214  97.2833 184.3794 0000526  84.2328 275.8983 15.49194969  4522"
  },
  {
    "name": "STARLINK-37700",
    "noradId": "69215",
    "line1": "1 69215U 26115E   26167.21669728  .00025756  00000+0  47336-3 0  9991",
    "line2": "2 69215  97.2830 184.1980 0001328  81.9751 278.1651 15.49208731  4509"
  },
  {
    "name": "STARLINK-37766",
    "noradId": "69216",
    "line1": "1 69216U 26115F   26167.25002315 -.02465111  00000+0 -42258-1 0  9992",
    "line2": "2 69216  97.2845 184.5845 0001778  95.1690 193.0370 15.55008696  4540"
  },
  {
    "name": "STARLINK-37763",
    "noradId": "69217",
    "line1": "1 69217U 26115G   26167.25002315  .00010731  00000+0  19909-3 0  9992",
    "line2": "2 69217  97.2840 184.5322 0001583  84.5559  86.5774 15.49132920  4541"
  },
  {
    "name": "STARLINK-37724",
    "noradId": "69218",
    "line1": "1 69218U 26115H   26167.25002315 -.02512775  00000+0 -39815-1 0  9998",
    "line2": "2 69218  97.2846 184.6194 0001233  90.2432 277.4190 15.57205397  4543"
  },
  {
    "name": "STARLINK-37758",
    "noradId": "69219",
    "line1": "1 69219U 26115J   26167.25002315 -.02470699  00000+0 -38436-1 0  9995",
    "line2": "2 69219  97.2843 184.6271 0001260  88.9838 298.2577 15.57624401  4542"
  },
  {
    "name": "STARLINK-37201",
    "noradId": "69220",
    "line1": "1 69220U 26115K   26167.25002315 -.02519811  00000+0 -39757-1 0  9994",
    "line2": "2 69220  97.2845 184.6260 0001256  93.1376 288.0976 15.57329902  4542"
  },
  {
    "name": "STARLINK-37728",
    "noradId": "69221",
    "line1": "1 69221U 26115L   26167.25002315 -.02487003  00000+0 -41627-1 0  9991",
    "line2": "2 69221  97.2841 184.6193 0001184  86.8090 280.0681 15.55696921  4547"
  },
  {
    "name": "STARLINK-37760",
    "noradId": "69222",
    "line1": "1 69222U 26115M   26167.25002315 -.02547291  00000+0 -37958-1 0  9990",
    "line2": "2 69222  97.2841 184.6345 0001184  80.5181 322.6622 15.58885351  4547"
  },
  {
    "name": "STARLINK-37759",
    "noradId": "69223",
    "line1": "1 69223U 26115N   26167.25002315  .00008147  00000+0  15139-3 0  9998",
    "line2": "2 69223  97.2845 184.5351 0001059 103.1832  76.4455 15.49171567  4549"
  },
  {
    "name": "STARLINK-37725",
    "noradId": "69224",
    "line1": "1 69224U 26115P   26167.25002315  .00009054  00000+0  16812-3 0  9996",
    "line2": "2 69224  97.2841 184.5397 0001243  95.6856  96.6053 15.49159300  4541"
  },
  {
    "name": "STARLINK-37770",
    "noradId": "69225",
    "line1": "1 69225U 26115Q   26167.25002315 -.02527763  00000+0 -36159-1 0  9997",
    "line2": "2 69225  97.2847 184.6444 0001296  65.4060   4.1268 15.59920284  4542"
  }
]